#dP2021  1 16 18  0  0.00000000      96 __u+U ITR00 EXT  IAC
## 2140 583200.00000000   900.00000000 59230 0.7500000000000
+  114   C06C07C08C10C11C12C13C14C16C19C20C21C22C23C24C25C26
+        C27C28C29C30C32C33C34C35C36C37C38C39C40C43C44C45C46
+        E01E02E03E04E05E07E08E09E11E12E13E14E15E18E19E21E24
+        E25E26E27E30E31E33E36G01G02G03G04G05G06G07G08G09G10
+        G11G12G13G14G15G16G17G18G19G20G21G22G23G24G25G26G27
+        G28G29G30G31G32J01J02J03R01R02R03R04R05R07R08R09R11
+        R12R13R14R15R16R17R18R19R20R21R22R24  0  0  0  0  0
++        10 10  9 10  9  8  7  8  9  9  8  8  8 10  9  9  9
++        10  9  8  9  9  8  8  9  9 10 12 11 14 10 10 10 12
++         7  9  8  8  9 10  9  8  7  9  7  9  7  7  9  9  7
++        10  9  8  8  7  9  8  7  8  7  6  8  8  7  7  6  7
++         7  8  9  6  8  7  7  8  7  8  8  5  7  7  8  6  6
++         8  6  8  8  7 11 11  8 11 10  9  8  9 10  8  8  8
++         8  9  9  8  9  7  9  8  9  8  9  8  0  0  0  0  0
%c M  cc GPS ccc cccc cccc cccc cccc ccccc ccccc ccccc ccccc
%c cc cc ccc ccc cccc cccc cccc cccc ccccc ccccc ccccc ccccc
%f  0.0000000  0.000000000  0.00000000000  0.000000000000000
%f  0.0000000  0.000000000  0.00000000000  0.000000000000000
%i    0    0    0    0      0      0      0      0         0
%i    0    0    0    0      0      0      0      0         0
/* IAC                                ULTRA-RAPID PREDICTION
/* S/V CLOCKS ARE ALIGNED TO GNSS TIME                      
/* G:C1WC2W R:C1PC2P E:C1XC5X C:C2IC6I J:C1CC2S             
/* PCV:IGS14_2134 OL/AL:FES2004  NONE     YN ORB:CoN CLK:CoN
*  2021 01 17  8  0  0.00000000
PC06 -20192.801561  36430.152051   5107.118954     12.084589
PC07  -6498.246269  31860.073228  27335.387262   -235.147787
PC08 -18796.439077  18507.276084 -32885.554292   -904.774668
PC10   4434.639317  37386.431711  19613.557385   -102.614111
PC11   5554.518726 -21678.409287  16712.872101   -891.889542
PC12  18816.899826 -20588.298470    466.631719    735.195210
PC13  -1625.329369  22678.229254 -35413.108836    101.380669
PC14  -3879.217852 -26840.589093   6488.318394    -78.104641
PC16 -19515.350581  36827.101530   5700.342021   -662.626171
PC19  10415.311910  25734.400486   2908.905860    693.922017
PC20  -2077.585865  24279.068234 -13608.801181   -909.640190
PC21  13949.486524  -8162.589937  22761.362671   -796.502398
PC22  17190.459182  12357.526120  18191.387945   -847.421907
PC23 -26418.351720  -8414.183941  -3215.507111   -880.863723
PC24   7959.334385 -14606.885593 -22413.457922   -743.240958
PC25 -14192.649231 -15951.918965 -17987.448516   -900.298330
PC26  23462.123159  -5464.021597 -14062.798783    961.778976
PC27 -22095.363651  14635.225683   8696.122711    467.787507
PC28 -17996.594749  -2289.466867  21213.048150   -120.746785
PC29   4049.486147  17672.901302 -21214.293993    339.698278
PC30 -12711.421013  23358.969025  -8418.372693    432.333045
PC32 -13892.490198   8264.254945 -22736.565526   -884.139820
PC33 -10480.648161 -25705.454862  -2791.885769   -918.907650
PC34  12290.916745 -23398.017604   8992.500652   -761.281846
PC35  17975.549368   1952.832116 -21264.094900   -461.806743
PC36  13462.688471  16340.176126  18195.606561   -775.216345
PC37 -24092.983209   4354.869421  13426.794369   -860.687781
PC38 -16676.232409  21440.459018 -32250.796863    124.398685
PC39 -15971.621698  38300.818339   7050.976363     27.502509
PC40   -601.097918  34441.089477  24434.671583    122.083671
PC43  -3611.294718 -18063.826503  20968.031261   -555.792115
PC44  21689.698990 -15193.906517  -8858.117823     -9.148151
PC45  26439.142922   8294.447774   3176.636308    337.445746
PC46  -7068.751114  14770.177851  22602.406765    448.392719
PE01  17935.244299  21963.757880   8467.584653  -1026.509561
PE02 -18032.575063 -21950.595099  -8361.959060    191.648918
PE03  -7436.516195 -23985.070736 -15670.732486   -388.246954
PE04  16413.647113   5278.120970  24059.533502   -690.540528
PE05   6048.250930 -28903.728389   2049.062821   -312.220471
PE07 -15872.033555  16906.265232 -18400.950981   -488.748312
PE08 -16374.052171  -4816.825447 -24188.196124   6060.822068
PE09  15626.955096 -17132.640845  18387.933306   5796.364488
PE11  26156.220291 -13231.757361   4174.010860   6457.675298
PE12  25694.850106    252.102726 -14698.646031   5402.652698
PE13 -26271.710455  13095.610333  -3778.179578    410.414208
PE14  12801.153500 -22971.625163  -2314.773604  -1297.604062
PE15 -25688.916742   -102.061875  14717.488884    833.879127
PE18  -2791.385034  28370.188305 -12016.638883  -1418.212694
PE19   5882.719484  25412.978272  13984.562921    180.486667
PE21    806.455355  19723.424797  22051.519996   -643.304223
PE24  17833.392414  -5440.872643 -22993.882751   -693.983798
PE25   -652.042729 -19657.160671 -22120.073977   -524.491094
PE26 -10750.615008  18633.433262 -20322.128039   2255.799276
PE27 -17373.324333   5982.979654  23212.871716     49.410370
PE30 -25192.245261 -11879.067308  10045.235639   3256.287743
PE31  25215.393488  11178.602469 -10722.000471   -477.428412
PE33  10006.480861  13206.678873 -24515.429715   -464.925643
PE36  11399.584124 -18580.235712  20038.132882    453.146869
PG01   6079.548984  13974.851399 -22026.814159    778.759169
PG02  17148.451627 -14483.854458  14863.997019   -566.886074
PG03  12073.574244  22734.014713  -6836.807080    -58.446195
PG04   1198.915217  22361.831579  14243.811442   -173.356938
PG05   4259.799722 -16751.163999  19967.045617    -31.210251
PG06  25799.281369  -5781.086368   2862.420419     -4.531306
PG07  20918.646976   7881.461196  15035.886401     24.699899
PG08  -3979.062109  25053.397482  -7336.157937     -6.909905
PG09  10720.015243  12928.496486  20506.366589   -313.603966
PG10 -19673.852262  -6064.150635 -16825.227248    -41.008582
PG11  -2699.165178  19530.682903 -18402.391114    -50.714466
PG12  -7668.483897 -23458.692743 -10258.333788     11.813268
PG13  13195.833192 -22960.946298    656.476465     86.813420
PG14  19682.040385   8294.773986 -15800.347075     86.664845
PG15    255.833492 -25126.227021  -8383.504711   -175.770175
PG16  -6672.047458  15075.035428  20480.598542   -266.299598
PG17  16758.797977  -5306.159042 -19472.334739    381.293990
PG18 -22425.183008  -6130.848593  12892.996617    341.820314
PG19  18003.944005 -12070.397790 -15570.919517    -50.830694
PG20 -21726.598809 -14247.395634  -6225.235157    525.129316
PG21  -2973.840813  15535.821100 -20536.282415     87.531659
PG22   6384.185774  21586.985410 -14024.187774   -696.735916
PG23 -20270.986856 -14927.135375  -8552.230765    116.360452
PG24  -1443.248113 -15887.424993 -21449.262870      3.578935
PG25 -17619.432361 -19960.268041   1916.834903     61.448068
PG26 -14908.976749   6126.806535  21098.900834     31.151285
PG27 -12401.828001  22734.838107   4800.916217    -57.687848
PG28  18248.488021   5972.499915 -17702.696184    628.587680
PG29  -8538.371918 -14110.164574  20772.177429   -277.356056
PG30  26213.789407    518.666767   4982.282346   -370.229485
PG31 -25380.726735   6838.170814   5203.994281    -94.398581
PG32 -16991.477841   6459.536271 -19215.585685     14.710061
PJ01 -20152.812686  27159.458611 -20623.775540   -336.790115
PJ02 -27348.163617  20335.818929  29706.881629      0.816334
PJ03 -33096.573761  26254.326333   6143.952075     -0.140086
PR01  -1504.961729 -25097.895075   4268.374729     73.609361
PR02  -9590.793434 -17504.974702 -15885.817769    463.208348
PR03 -10955.126808    496.051904 -22994.000327     29.314563
PR04  -5892.198435  17976.831415 -17083.926897     70.330808
PR05   2267.418879  25345.268429  -1564.273040     64.896834
PR07  10886.040475  -1301.486093  23063.707911    -42.186909
PR08   6005.829504 -18004.367856  17103.872684    -56.890616
PR09  21341.620150  12348.787479   6677.394487     19.043454
PR11  11311.285510  -6546.767803 -21898.436373      4.468042
PR12  -7208.365802 -13539.000663 -20367.220453    197.345318
PR13 -21158.214575 -12330.217163  -7170.053643    -49.445396
PR14 -22752.024192  -3875.717665  10862.838124     59.949049
PR15 -11114.674879   6685.980591  21981.571723    105.852743
PR16   8172.073294  13610.627489  19894.318774    -10.288865
PR17 -20497.026739   7923.413150  12999.863015    391.977234
PR18 -19300.724527  16248.297492  -3543.194183     63.447357
PR19  -8905.667569  15939.168166 -17806.674966   -128.225018
PR20   9592.537345   5724.714053 -22921.576443   -431.306521
PR21  20751.083445  -8643.536469 -12024.891307   -180.975594
PR22  18955.389047 -16480.034473   4720.963890    -92.930576
PR24 -10515.907106  -5503.329668  22603.545116     28.102390
EOF
